OBJECT_NAME,OBJECT_ID,EPOCH,MEAN_MOTION,ECCENTRICITY,INCLINATION,RA_OF_ASC_NODE,ARG_OF_PERICENTER,MEAN_ANOMALY,EPHEMERIS_TYPE,CLASSIFICATION_TYPE,NORAD_CAT_ID,ELEMENT_SET_NO,REV_AT_EPOCH,BSTAR,MEAN_MOTION_DOT,MEAN_MOTION_DDOT
TELSTAR 12V,2015-068A,2026-07-19T09:41:04.648992,1.00271293,.0002261,0.0134,74.2867,39.0663,314.0984,0,U,41036,999,3894,0,-.124E-5,0
ELEKTRO-L 2,2015-074A,2026-07-19T09:41:12.137280,1.00272125,.00009195,6.7732,70.1276,224.4522,133.4171,0,U,41105,999,3882,0,-.125E-5,0
COSMOS 2513,2015-075A,2026-07-19T04:32:21.417792,1.00273427,.00021822,0.0617,103.7293,343.7867,357.7937,0,U,41121,999,3886,0,-.144E-5,0
EXPRESS-AMU1,2015-082A,2026-07-19T13:20:53.451744,1.00268786,.00024632,0.0158,63.2138,54.2113,56.2392,0,U,41191,999,3859,0,.151E-5,0
GAOFEN-4,2015-083A,2026-07-19T13:40:46.368768,1.00271085,.00041765,0.4391,83.8465,122.3664,42.0354,0,U,41194,999,3885,0,-.339E-5,0
BELINTERSAT-1,2016-001A,2026-07-19T13:25:23.020608,1.00274855,.00016385,0.0415,241.5699,194.6101,114.0436,0,U,41238,999,3856,0,.102E-5,0
IRNSS-1E,2016-003A,2026-07-18T14:25:22.354752,1.00276269,.0019245,33.2996,59.2938,176.3205,28.9297,0,U,41241,999,3839,0,-.316E-5,0
EUTELSAT 9B,2016-005A,2026-07-19T13:13:01.706016,1.00272587,.00012115,0.0474,68.4889,41.5239,34.5570,0,U,41310,999,3844,0,.57E-6,0
SES-9,2016-013A,2026-07-19T03:37:38.629056,1.00272397,.00023242,0.0160,335.9288,129.6294,354.0978,0,U,41380,999,3776,0,-.351E-5,0
EUTELSAT 65 WEST A,2016-014A,2026-07-19T12:51:41.252832,1.00272853,.0002281,0.0889,298.0055,174.5922,312.4547,0,U,41382,999,3785,0,-.281E-5,0
IRNSS-1F,2016-015A,2026-07-19T06:29:22.121952,1.00268411,.00177606,5.4269,96.0426,179.7730,151.0315,0,U,41384,999,3798,0,.15E-5,0
BEIDOU-2 IGSO-6,2016-021A,2026-06-26T02:38:38.671584,1.00258926,.0057558,60.2385,37.9495,231.0163,137.2672,0,U,41434,999,3757,0,-.145E-5,0
IRNSS-1G,2016-027A,2026-07-19T13:47:38.210784,1.00268743,.00059322,5.2733,96.7251,12.6650,164.5318,0,U,41469,999,3750,0,-.341E-5,0
JCSAT-2B,2016-028A,2026-07-19T03:38:27.408768,1.00271479,.00009213,0.0200,59.6333,36.9301,48.9933,0,U,41471,999,3745,0,-.171E-5,0
THAICOM 8,2016-031A,2026-07-19T13:33:02.112192,1.00271958,.0003041,0.0596,35.6710,40.1247,143.2986,0,U,41552,999,3704,0,-.125E-5,0
INTELSAT 31 (IS-31),2016-035A,2026-07-19T05:33:26.460864,1.00272130,.0000958,0.0043,348.8206,312.1432,344.3692,0,U,41581,999,3700,0,-.156E-5,0
BEIDOU-2 G7,2016-037A,2026-07-19T14:17:28.540608,1.00271361,.00059749,1.7989,69.5452,0.4436,192.3184,0,U,41586,999,721,0,-.358E-5,0
ABS-2A (MONGOLSAT-1),2016-038A,2026-07-19T08:23:52.147104,1.00270688,.00016605,0.0093,55.3090,10.6319,71.8556,0,U,41588,999,3703,0,-.88E-6,0
EUTELSAT 117 WEST B,2016-038B,2026-07-19T10:53:38.592096,1.00270716,.0000154,0.0069,154.1524,21.5477,167.9652,0,U,41589,999,3698,0,-.16E-6,0
BRISAT,2016-039A,2026-07-19T07:02:48.914016,1.00270607,.0002031,0.0131,26.9772,85.6098,80.7063,0,U,41591,999,3693,0,0,0
ECHOSTAR 18,2016-039B,2026-07-19T11:10:28.528608,1.00271711,.00015697,0.0187,59.0152,65.6106,278.8698,0,U,41592,999,3694,0,-.287E-5,0
MUOS-5,2016-041A,2026-07-19T12:40:34.816800,1.00273897,.01997073,2.1351,302.3141,260.5253,179.5091,0,U,41622,999,3741,0,-.152E-5,0
TIANTONG-1 1,2016-048A,2026-07-19T13:39:31.489344,1.00273295,.00048928,3.9109,43.6633,56.5238,143.4342,0,U,41725,999,3659,0,-.323E-5,0
JCSAT-16,2016-050A,2026-07-19T13:51:37.828224,1.00272285,.00010877,0.0195,61.8879,60.6793,166.6457,0,U,41729,999,3639,0,-.255E-5,0
USA 270,2016-052A,2026-07-14T10:51:22.391136,1.00267800,.0009408,4.2649,76.8388,101.7031,42.7683,0,U,41744,999,2840,0,-.362E-5,0
USA 271,2016-052B,2026-07-14T02:57:21.919968,1.00268559,.0011085,4.2370,76.9135,165.9764,191.3847,0,U,41745,999,2818,0,-.3E-5,0
INTELSAT 36 (IS-36),2016-053A,2026-07-19T13:30:09.886752,1.00272974,.00023467,0.0094,28.0386,319.1766,221.1635,0,U,41747,999,3628,0,-.29E-6,0
INSAT-3DR,2016-054A,2026-07-19T13:31:39.742752,1.00271307,.00103954,0.0807,89.1003,180.4794,304.6711,0,U,41752,999,3614,0,-.81E-6,0
GSAT-18,2016-060A,2026-07-19T13:31:47.231040,1.00271915,.00053676,0.0459,91.6864,348.7706,133.8027,0,U,41793,999,3585,0,-.81E-6,0
SKY MUSTER 2 (NBN1B),2016-060B,2026-07-19T13:51:52.803936,1.00270177,.00017709,0.0169,53.4141,65.9323,170.7901,0,U,41794,999,3584,0,0,0
HIMAWARI-9,2016-064A,2026-07-19T15:31:58.567296,1.00274770,.00018586,0.0382,246.7218,277.8863,146.5488,0,U,41836,999,3553,0,-.278E-5,0
SHIJIAN-17 (SJ-17),2016-065A,2026-07-18T14:36:40.965408,0.99867474,.0002014,5.8309,72.2237,43.0542,229.6129,0,U,41838,999,3551,0,.33E-6,0
