TELSTAR 12V             
1 41036U 15068A   26200.40352603 -.00000124  00000+0  00000+0 0  9993
2 41036   0.0134  74.2867 0002261  39.0663 314.0984  1.00271293 38944
ELEKTRO-L 2             
1 41105U 15074A   26200.40361270 -.00000125  00000+0  00000+0 0  9998
2 41105   6.7732  70.1276 0000919 224.4522 133.4171  1.00272125 38822
COSMOS 2513             
1 41121U 15075A   26200.18913678 -.00000144  00000+0  00000+0 0  9998
2 41121   0.0617 103.7293 0002182 343.7867 357.7937  1.00273427 38863
EXPRESS-AMU1            
1 41191U 15082A   26200.55617421  .00000151  00000+0  00000+0 0  9998
2 41191   0.0158  63.2138 0002463  54.2113  56.2392  1.00268786 38596
GAOFEN-4                
1 41194U 15083A   26200.56998112 -.00000339  00000+0  00000+0 0  9991
2 41194   0.4391  83.8465 0004176 122.3664  42.0354  1.00271085 38850
BELINTERSAT-1           
1 41238U 16001A   26200.55929422  .00000102  00000+0  00000+0 0  9995
2 41238   0.0415 241.5699 0001638 194.6101 114.0436  1.00274855 38569
IRNSS-1E                
1 41241U 16003A   26199.60095318 -.00000316  00000+0  00000+0 0  9990
2 41241  33.2996  59.2938 0019245 176.3205  28.9297  1.00276269 38390
EUTELSAT 9B             
1 41310U 16005A   26200.55071419  .00000057  00000+0  00000+0 0  9993
2 41310   0.0474  68.4889 0001211  41.5239  34.5570  1.00272587 38443
SES-9                   
1 41380U 16013A   26200.15114154 -.00000351  00000+0  00000+0 0  9997
2 41380   0.0160 335.9288 0002324 129.6294 354.0978  1.00272397 37767
EUTELSAT 65 WEST A      
1 41382U 16014A   26200.53589413 -.00000281  00000+0  00000+0 0  9998
2 41382   0.0889 298.0055 0002281 174.5922 312.4547  1.00272853 37854
IRNSS-1F                
1 41384U 16015A   26200.27039493  .00000150  00000+0  00000+0 0  9994
2 41384   5.4269  96.0426 0017760 179.7730 151.0315  1.00268411 37986
BEIDOU-2 IGSO-6         
1 41434U 16021A   26177.11016981 -.00000145  00000+0  00000+0 0  9995
2 41434  60.2385  37.9495 0057558 231.0163 137.2672  1.00258926 37578
IRNSS-1G                
1 41469U 16027A   26200.57474781 -.00000341  00000+0  00000+0 0  9990
2 41469   5.2733  96.7251 0005932  12.6650 164.5318  1.00268743 37509
JCSAT-2B                
1 41471U 16028A   26200.15170612 -.00000171  00000+0  00000+0 0  9995
2 41471   0.0200  59.6333 0000921  36.9301  48.9933  1.00271479 37450
THAICOM 8               
1 41552U 16031A   26200.56460778 -.00000125  00000+0  00000+0 0  9998
2 41552   0.0596  35.6710 0003041  40.1247 143.2986  1.00271958 37047
INTELSAT 31 (IS-31)     
1 41581U 16035A   26200.23155626 -.00000156  00000+0  00000+0 0  9995
2 41581   0.0043 348.8206 0000958 312.1432 344.3692  1.00272130 37004
BEIDOU-2 G7             
1 41586U 16037A   26200.59546922 -.00000358  00000+0  00000+0 0  9998
2 41586   1.7989  69.5452 0005974   0.4436 192.3184  1.00271361  7212
ABS-2A (MONGOLSAT-1)    
1 41588U 16038A   26200.34990911 -.00000088  00000+0  00000+0 0  9995
2 41588   0.0093  55.3090 0001660  10.6319  71.8556  1.00270688 37032
EUTELSAT 117 WEST B     
1 41589U 16038B   26200.45391889 -.00000016  00000+0  00000+0 0  9998
2 41589   0.0069 154.1524 0000154  21.5477 167.9652  1.00270716 36988
BRISAT                  
1 41591U 16039A   26200.29362169  .00000000  00000+0  00000+0 0  9995
2 41591   0.0131  26.9772 0002031  85.6098  80.7063  1.00270607 36930
ECHOSTAR 18             
1 41592U 16039B   26200.46560797 -.00000287  00000+0  00000+0 0  9990
2 41592   0.0187  59.0152 0001569  65.6106 278.8698  1.00271711 36946
MUOS-5                  
1 41622U 16041A   26200.52818075 -.00000152  00000+0  00000+0 0  9990
2 41622   2.1351 302.3141 0199707 260.5253 179.5091  1.00273897 37413
TIANTONG-1 1            
1 41725U 16048A   26200.56911446 -.00000323  00000+0  00000+0 0  9991
2 41725   3.9109  43.6633 0004892  56.5238 143.4342  1.00273295 36593
JCSAT-16                
1 41729U 16050A   26200.57752116 -.00000255  00000+0  00000+0 0  9990
2 41729   0.0195  61.8879 0001087  60.6793 166.6457  1.00272285 36399
USA 270                 
1 41744U 16052A   26195.45234249 -.00000362  00000+0  00000+0 0  9990
2 41744   4.2649  76.8388 0009408 101.7031  42.7683  1.00267800 28409
USA 271                 
1 41745U 16052B   26195.12317037 -.00000300  00000+0  00000+0 0  9994
2 41745   4.2370  76.9135 0011085 165.9764 191.3847  1.00268559 28181
INTELSAT 36 (IS-36)     
1 41747U 16053A   26200.56261443 -.00000029  00000+0  00000+0 0  9999
2 41747   0.0094  28.0386 0002346 319.1766 221.1635  1.00272974 36284
INSAT-3DR               
1 41752U 16054A   26200.56365443 -.00000081  00000+0  00000+0 0  9999
2 41752   0.0807  89.1003 0010395 180.4794 304.6711  1.00271307 36145
GSAT-18                 
1 41793U 16060A   26200.56374110 -.00000081  00000+0  00000+0 0  9992
2 41793   0.0459  91.6864 0005367 348.7706 133.8027  1.00271915 35855
SKY MUSTER 2 (NBN1B)    
1 41794U 16060B   26200.57769449  .00000000  00000+0  00000+0 0  9997
2 41794   0.0169  53.4141 0001770  65.9323 170.7901  1.00270177 35844
HIMAWARI-9              
1 41836U 16064A   26200.64720564 -.00000278  00000+0  00000+0 0  9999
2 41836   0.0382 246.7218 0001858 277.8863 146.5488  1.00274770 35530
SHIJIAN-17 (SJ-17)      
1 41838U 16065A   26199.60880747  .00000033  00000+0  00000+0 0  9993
2 41838   5.8309  72.2237 0002014  43.0542 229.6129  0.99867474 35518
